SL-3 R/B                
1 13403U 82079B   25361.85097082  .00008360  00000+0  34295-3 0  9995
2 13403  81.1470 277.8477 0026761  50.6864 309.6735 15.23771189366751
SL-14 R/B               
1 13553U 82092B   25361.69229692  .00000571  00000+0  61489-4 0  9994
2 13553  82.5670 208.7277 0020379 175.8925 252.7667 14.86570142318238
SL-3 R/B                
1 13819U 83010B   25361.74584360  .00016850  00000+0  36852-3 0  9994
2 13819  81.1041  90.2970 0016464 297.6616  62.2956 15.43877307346833
SL-3 R/B                
1 14208U 83075B   25361.89842498  .00013066  00000+0  36611-3 0  9992
2 14208  97.6115 358.8942 0024225 123.3981 236.9585 15.36449585319121
COSMOS 1536             
1 14699U 84013A   25361.92173374  .00007805  00000+0  33262-3 0  9996
2 14699  82.5450 179.1052 0014782 170.0557 190.0975 15.22696438261698
SL-14 R/B               
1 14820U 84027B   25361.90946268  .00000683  00000+0  75501-4 0  9995
2 14820  82.5424 312.3301 0017143 206.7181 153.3154 14.85891224236979
SL-8 R/B                
1 15483U 85006B   25361.87233145  .00000336  00000+0  12033-3 0  9993
2 15483  74.0459  33.2928 0019352 322.5314 210.4009 14.37730634143708
SL-12 R/B(2)            
1 15772U 85042D   25361.93102991  .00000114  00000+0  72810-4 0  9999
2 15772  71.1066 239.3275 0037202 239.1862 131.4012 14.21956365104190
SL-14 R/B               
1 15945U 85069B   25361.71414152  .00000640  00000+0  69619-4 0  9998
2 15945  82.5272  92.6260 0020247  72.4823 287.8604 14.86341773162141
SL-16 R/B               
1 16182U 85097B   25361.96293429 -.00000185  00000+0 -68564-4 0  9996
2 16182  71.0033 291.5542 0007644 347.4488  81.6522 14.16586797 77070
SL-14 R/B               
1 16496U 86006B   25361.97844615  .00000797  00000+0  81973-4 0  9991
2 16496  82.5274 327.2122 0077500 149.3559 211.2220 14.86691292138550
COSMOS 1743             
1 16719U 86034A   25361.47842192  .00036403  00000+0  58104-3 0  9995
2 16719  82.5346 149.2732 0005056 193.4487 166.6632 15.53020145169028
