CCSDS_OMM_VERS = 2.0
CREATION_DATE  = 
ORIGINATOR     = 

OBJECT_NAME    = SL-3 R/B
OBJECT_ID      = 1982-079B
CENTER_NAME    = EARTH
REF_FRAME      = TEME
TIME_SYSTEM    = UTC
MEAN_ELEMENT_THEORY = SGP/SGP4

EPOCH          = 2025-12-27T20:25:23.878848
MEAN_MOTION    = 15.23771189
ECCENTRICITY   = .00267619
INCLINATION    = 81.1470
RA_OF_ASC_NODE = 277.8477
ARG_OF_PERICENTER = 50.6864
MEAN_ANOMALY   = 309.6735

EPHEMERIS_TYPE = 0
CLASSIFICATION_TYPE = U
NORAD_CAT_ID   = 13403
ELEMENT_SET_NO = 999
REV_AT_EPOCH   = 36675
BSTAR          = .34294767E-3
MEAN_MOTION_DOT = .836E-4
MEAN_MOTION_DDOT = 0

CCSDS_OMM_VERS = 2.0
CREATION_DATE  = 
ORIGINATOR     = 

OBJECT_NAME    = SL-14 R/B
OBJECT_ID      = 1982-092B
CENTER_NAME    = EARTH
REF_FRAME      = TEME
TIME_SYSTEM    = UTC
MEAN_ELEMENT_THEORY = SGP/SGP4

EPOCH          = 2025-12-27T16:36:54.453888
MEAN_MOTION    = 14.86570142
ECCENTRICITY   = .00203797
INCLINATION    = 82.5670
RA_OF_ASC_NODE = 208.7277
ARG_OF_PERICENTER = 175.8925
MEAN_ANOMALY   = 252.7667

EPHEMERIS_TYPE = 0
CLASSIFICATION_TYPE = U
NORAD_CAT_ID   = 13553
ELEMENT_SET_NO = 999
REV_AT_EPOCH   = 31823
BSTAR          = .61488596E-4
MEAN_MOTION_DOT = .571E-5
MEAN_MOTION_DDOT = 0

CCSDS_OMM_VERS = 2.0
CREATION_DATE  = 
ORIGINATOR     = 

OBJECT_NAME    = SL-3 R/B
OBJECT_ID      = 1983-010B
CENTER_NAME    = EARTH
REF_FRAME      = TEME
TIME_SYSTEM    = UTC
MEAN_ELEMENT_THEORY = SGP/SGP4

EPOCH          = 2025-12-27T17:54:00.887040
MEAN_MOTION    = 15.43877307
ECCENTRICITY   = .00164642
INCLINATION    = 81.1041
RA_OF_ASC_NODE = 90.2970
ARG_OF_PERICENTER = 297.6616
MEAN_ANOMALY   = 62.2956

EPHEMERIS_TYPE = 0
CLASSIFICATION_TYPE = U
NORAD_CAT_ID   = 13819
ELEMENT_SET_NO = 999
REV_AT_EPOCH   = 34683
BSTAR          = .36851776E-3
MEAN_MOTION_DOT = .1685E-3
MEAN_MOTION_DDOT = 0

CCSDS_OMM_VERS = 2.0
CREATION_DATE  = 
ORIGINATOR     = 

OBJECT_NAME    = SL-3 R/B
OBJECT_ID      = 1983-075B
CENTER_NAME    = EARTH
REF_FRAME      = TEME
TIME_SYSTEM    = UTC
MEAN_ELEMENT_THEORY = SGP/SGP4

EPOCH          = 2025-12-27T21:33:43.918272
MEAN_MOTION    = 15.36449585
ECCENTRICITY   = .00242252
INCLINATION    = 97.6115
RA_OF_ASC_NODE = 358.8942
ARG_OF_PERICENTER = 123.3981
MEAN_ANOMALY   = 236.9585

EPHEMERIS_TYPE = 0
CLASSIFICATION_TYPE = U
NORAD_CAT_ID   = 14208
ELEMENT_SET_NO = 999
REV_AT_EPOCH   = 31912
BSTAR          = .36611108E-3
MEAN_MOTION_DOT = .13066E-3
MEAN_MOTION_DDOT = 0

CCSDS_OMM_VERS = 2.0
CREATION_DATE  = 
ORIGINATOR     = 

OBJECT_NAME    = COSMOS 1536
OBJECT_ID      = 1984-013A
CENTER_NAME    = EARTH
REF_FRAME      = TEME
TIME_SYSTEM    = UTC
MEAN_ELEMENT_THEORY = SGP/SGP4

EPOCH          = 2025-12-27T22:07:17.795136
MEAN_MOTION    = 15.22696438
ECCENTRICITY   = .00147827
INCLINATION    = 82.5450
RA_OF_ASC_NODE = 179.1052
ARG_OF_PERICENTER = 170.0557
MEAN_ANOMALY   = 190.0975

EPHEMERIS_TYPE = 0
CLASSIFICATION_TYPE = U
NORAD_CAT_ID   = 14699
ELEMENT_SET_NO = 999
REV_AT_EPOCH   = 26169
BSTAR          = .33261588E-3
MEAN_MOTION_DOT = .7805E-4
MEAN_MOTION_DDOT = 0

CCSDS_OMM_VERS = 2.0
CREATION_DATE  = 
ORIGINATOR     = 

OBJECT_NAME    = SL-14 R/B
OBJECT_ID      = 1984-027B
CENTER_NAME    = EARTH
REF_FRAME      = TEME
TIME_SYSTEM    = UTC
MEAN_ELEMENT_THEORY = SGP/SGP4

EPOCH          = 2025-12-27T21:49:37.575552
MEAN_MOTION    = 14.85891224
ECCENTRICITY   = .00171431
INCLINATION    = 82.5424
RA_OF_ASC_NODE = 312.3301
ARG_OF_PERICENTER = 206.7181
MEAN_ANOMALY   = 153.3154

EPHEMERIS_TYPE = 0
CLASSIFICATION_TYPE = U
NORAD_CAT_ID   = 14820
ELEMENT_SET_NO = 999
REV_AT_EPOCH   = 23697
BSTAR          = .75500981E-4
MEAN_MOTION_DOT = .683E-5
MEAN_MOTION_DDOT = 0

CCSDS_OMM_VERS = 2.0
CREATION_DATE  = 
ORIGINATOR     = 

OBJECT_NAME    = SL-8 R/B
OBJECT_ID      = 1985-006B
CENTER_NAME    = EARTH
REF_FRAME      = TEME
TIME_SYSTEM    = UTC
MEAN_ELEMENT_THEORY = SGP/SGP4

EPOCH          = 2025-12-27T20:56:09.437280
MEAN_MOTION    = 14.37730634
ECCENTRICITY   = .00193526
INCLINATION    = 74.0459
RA_OF_ASC_NODE = 33.2928
ARG_OF_PERICENTER = 322.5314
MEAN_ANOMALY   = 210.4009

EPHEMERIS_TYPE = 0
CLASSIFICATION_TYPE = U
NORAD_CAT_ID   = 15483
ELEMENT_SET_NO = 999
REV_AT_EPOCH   = 14370
BSTAR          = .12032702E-3
MEAN_MOTION_DOT = .336E-5
MEAN_MOTION_DDOT = 0

CCSDS_OMM_VERS = 2.0
CREATION_DATE  = 
ORIGINATOR     = 

OBJECT_NAME    = SL-12 R/B(2)
OBJECT_ID      = 1985-042D
CENTER_NAME    = EARTH
REF_FRAME      = TEME
TIME_SYSTEM    = UTC
MEAN_ELEMENT_THEORY = SGP/SGP4

EPOCH          = 2025-12-27T22:20:40.984224
MEAN_MOTION    = 14.21956365
ECCENTRICITY   = .00372027
INCLINATION    = 71.1066
RA_OF_ASC_NODE = 239.3275
ARG_OF_PERICENTER = 239.1862
MEAN_ANOMALY   = 131.4012

EPHEMERIS_TYPE = 0
CLASSIFICATION_TYPE = U
NORAD_CAT_ID   = 15772
ELEMENT_SET_NO = 999
REV_AT_EPOCH   = 10419
BSTAR          = .72810219E-4
MEAN_MOTION_DOT = .114E-5
MEAN_MOTION_DDOT = 0

CCSDS_OMM_VERS = 2.0
CREATION_DATE  = 
ORIGINATOR     = 

OBJECT_NAME    = SL-14 R/B
OBJECT_ID      = 1985-069B
CENTER_NAME    = EARTH
REF_FRAME      = TEME
TIME_SYSTEM    = UTC
MEAN_ELEMENT_THEORY = SGP/SGP4

EPOCH          = 2025-12-27T17:08:21.827328
MEAN_MOTION    = 14.86341773
ECCENTRICITY   = .00202479
INCLINATION    = 82.5272
RA_OF_ASC_NODE = 92.6260
ARG_OF_PERICENTER = 72.4823
MEAN_ANOMALY   = 287.8604

EPHEMERIS_TYPE = 0
CLASSIFICATION_TYPE = U
NORAD_CAT_ID   = 15945
ELEMENT_SET_NO = 999
REV_AT_EPOCH   = 16214
BSTAR          = .69619382E-4
MEAN_MOTION_DOT = .64E-5
MEAN_MOTION_DDOT = 0

CCSDS_OMM_VERS = 2.0
CREATION_DATE  = 
ORIGINATOR     = 

OBJECT_NAME    = SL-16 R/B
OBJECT_ID      = 1985-097B
CENTER_NAME    = EARTH
REF_FRAME      = TEME
TIME_SYSTEM    = UTC
MEAN_ELEMENT_THEORY = SGP/SGP4

EPOCH          = 2025-12-27T23:06:37.522656
MEAN_MOTION    = 14.16586797
ECCENTRICITY   = .00076446
INCLINATION    = 71.0033
RA_OF_ASC_NODE = 291.5542
ARG_OF_PERICENTER = 347.4488
MEAN_ANOMALY   = 81.6522

EPHEMERIS_TYPE = 0
CLASSIFICATION_TYPE = U
NORAD_CAT_ID   = 16182
ELEMENT_SET_NO = 999
REV_AT_EPOCH   = 7707
BSTAR          = -.68564365E-4
MEAN_MOTION_DOT = -.185E-5
MEAN_MOTION_DDOT = 0

CCSDS_OMM_VERS = 2.0
CREATION_DATE  = 
ORIGINATOR     = 

OBJECT_NAME    = SL-14 R/B
OBJECT_ID      = 1986-006B
CENTER_NAME    = EARTH
REF_FRAME      = TEME
TIME_SYSTEM    = UTC
MEAN_ELEMENT_THEORY = SGP/SGP4

EPOCH          = 2025-12-27T23:28:57.747360
MEAN_MOTION    = 14.86691292
ECCENTRICITY   = .00775001
INCLINATION    = 82.5274
RA_OF_ASC_NODE = 327.2122
ARG_OF_PERICENTER = 149.3559
MEAN_ANOMALY   = 211.2220

EPHEMERIS_TYPE = 0
CLASSIFICATION_TYPE = U
NORAD_CAT_ID   = 16496
ELEMENT_SET_NO = 999
REV_AT_EPOCH   = 13855
BSTAR          = .81972542E-4
MEAN_MOTION_DOT = .797E-5
MEAN_MOTION_DDOT = 0

CCSDS_OMM_VERS = 2.0
CREATION_DATE  = 
ORIGINATOR     = 

OBJECT_NAME    = COSMOS 1743
OBJECT_ID      = 1986-034A
CENTER_NAME    = EARTH
REF_FRAME      = TEME
TIME_SYSTEM    = UTC
MEAN_ELEMENT_THEORY = SGP/SGP4

EPOCH          = 2025-12-27T11:28:55.653888
MEAN_MOTION    = 15.53020145
ECCENTRICITY   = .00050562
INCLINATION    = 82.5346
RA_OF_ASC_NODE = 149.2732
ARG_OF_PERICENTER = 193.4487
MEAN_ANOMALY   = 166.6632

EPHEMERIS_TYPE = 0
CLASSIFICATION_TYPE = U
NORAD_CAT_ID   = 16719
ELEMENT_SET_NO = 999
REV_AT_EPOCH   = 16902
BSTAR          = .58104433E-3
MEAN_MOTION_DOT = .36403E-3
MEAN_MOTION_DDOT = 0

